STARLINK-36656          
1 67841U 26033W   26059.77829258  .00228144  00000+0  10539-2 0  9990
2 67841  42.9981 325.9347 0002106 266.1579  93.9052 15.82092690  3215
STARLINK-36653          
1 67842U 26033X   26059.77754704  .00121562  00000+0  57085-3 0  9998
2 67842  42.9988 325.9285 0002055 268.3025  91.7612 15.82049360  3211
STARLINK-36589          
1 67843U 26033Y   26059.77679794  .00215487  00000+0  99723-3 0  9999
2 67843  42.9981 325.9227 0001727 277.2303  82.8372 15.82088497  3212
STARLINK-36598          
1 67844U 26033Z   26059.77602950  .00105846  00000+0  49790-3 0  9996
2 67844  42.9981 325.9159 0001782 230.1546 129.9169 15.82066033  3214
STARLINK-36606          
1 67845U 26033AA  26059.77529515  .00248339  00000+0  11448-2 0  9995
2 67845  42.9985 325.9096 0002450 262.2545  97.8049 15.82083017  3218
STARLINK-36658          
1 67846U 26033AB  26059.77454633  .00259778  00000+0  11950-2 0  9991
2 67846  42.9982 325.9038 0002328 254.2271 105.8344 15.82097724  3211
STARLINK-36618          
1 67847U 26033AC  26059.75786056  .00056624  99178-5  10061-3 0  9995
2 67847  42.9885 324.8474 0002769 263.3844  96.6720 16.01694389  3220
STARLINK-36660          
1 67848U 26033AD  26059.77379566  .00220293  00000+0  10178-2 0  9995
2 67848  42.9982 325.8978 0001388 264.1708  95.9005 15.82110795  3212
STARLINK-36602          
1 67849U 26033AE  26059.77305093  .00173340  00000+0  80828-3 0  9990
2 67849  42.9986 325.8917 0002408 272.4009  87.6587 15.82042904  3219
STARLINK-36840          
1 67850U 26034A   26059.83335647 -.01412692  00000+0 -75983-2 0  9992
2 67850  53.1525 255.7461 0000768  71.2006  17.3074 15.82105169  2480
STARLINK-36348          
1 67851U 26034B   26059.83335647 -.01560754  00000+0 -83898-2 0  9990
2 67851  53.1523 255.7378 0001063  58.0027  34.4282 15.82394483  2436
STARLINK-36276          
1 67852U 26034C   26059.83335647 -.01568048  00000+0 -83427-2 0  9993
2 67852  53.1522 255.7297 0000715  72.5291  23.7758 15.82629276  2433
