CCSDS_OMM_VERS = 2.0
CREATION_DATE  = 
ORIGINATOR     = 

OBJECT_NAME    = STARLINK-36656
OBJECT_ID      = 2026-033W
CENTER_NAME    = EARTH
REF_FRAME      = TEME
TIME_SYSTEM    = UTC
MEAN_ELEMENT_THEORY = SGP/SGP4

EPOCH          = 2026-02-28T18:40:44.478912
MEAN_MOTION    = 15.82092690
ECCENTRICITY   = .0002106
INCLINATION    = 42.9981
RA_OF_ASC_NODE = 325.9347
ARG_OF_PERICENTER = 266.1579
MEAN_ANOMALY   = 93.9052

EPHEMERIS_TYPE = 0
CLASSIFICATION_TYPE = U
NORAD_CAT_ID   = 67841
ELEMENT_SET_NO = 999
REV_AT_EPOCH   = 321
BSTAR          = .10539E-2
MEAN_MOTION_DOT = .228144E-2
MEAN_MOTION_DDOT = 0

CCSDS_OMM_VERS = 2.0
CREATION_DATE  = 
ORIGINATOR     = 

OBJECT_NAME    = STARLINK-36653
OBJECT_ID      = 2026-033X
CENTER_NAME    = EARTH
REF_FRAME      = TEME
TIME_SYSTEM    = UTC
MEAN_ELEMENT_THEORY = SGP/SGP4

EPOCH          = 2026-02-28T18:39:40.064256
MEAN_MOTION    = 15.82049360
ECCENTRICITY   = .0002055
INCLINATION    = 42.9988
RA_OF_ASC_NODE = 325.9285
ARG_OF_PERICENTER = 268.3025
MEAN_ANOMALY   = 91.7612

EPHEMERIS_TYPE = 0
CLASSIFICATION_TYPE = U
NORAD_CAT_ID   = 67842
ELEMENT_SET_NO = 999
REV_AT_EPOCH   = 321
BSTAR          = .57085E-3
MEAN_MOTION_DOT = .121562E-2
MEAN_MOTION_DDOT = 0

CCSDS_OMM_VERS = 2.0
CREATION_DATE  = 
ORIGINATOR     = 

OBJECT_NAME    = STARLINK-36589
OBJECT_ID      = 2026-033Y
CENTER_NAME    = EARTH
REF_FRAME      = TEME
TIME_SYSTEM    = UTC
MEAN_ELEMENT_THEORY = SGP/SGP4

EPOCH          = 2026-02-28T18:38:35.342016
MEAN_MOTION    = 15.82088497
ECCENTRICITY   = .0001727
INCLINATION    = 42.9981
RA_OF_ASC_NODE = 325.9227
ARG_OF_PERICENTER = 277.2303
MEAN_ANOMALY   = 82.8372

EPHEMERIS_TYPE = 0
CLASSIFICATION_TYPE = U
NORAD_CAT_ID   = 67843
ELEMENT_SET_NO = 999
REV_AT_EPOCH   = 321
BSTAR          = .99723E-3
MEAN_MOTION_DOT = .215487E-2
MEAN_MOTION_DDOT = 0

CCSDS_OMM_VERS = 2.0
CREATION_DATE  = 
ORIGINATOR     = 

OBJECT_NAME    = STARLINK-36598
OBJECT_ID      = 2026-033Z
CENTER_NAME    = EARTH
REF_FRAME      = TEME
TIME_SYSTEM    = UTC
MEAN_ELEMENT_THEORY = SGP/SGP4

EPOCH          = 2026-02-28T18:37:28.948800
MEAN_MOTION    = 15.82066033
ECCENTRICITY   = .0001782
INCLINATION    = 42.9981
RA_OF_ASC_NODE = 325.9159
ARG_OF_PERICENTER = 230.1546
MEAN_ANOMALY   = 129.9169

EPHEMERIS_TYPE = 0
CLASSIFICATION_TYPE = U
NORAD_CAT_ID   = 67844
ELEMENT_SET_NO = 999
REV_AT_EPOCH   = 321
BSTAR          = .4979E-3
MEAN_MOTION_DOT = .105846E-2
MEAN_MOTION_DDOT = 0

CCSDS_OMM_VERS = 2.0
CREATION_DATE  = 
ORIGINATOR     = 

OBJECT_NAME    = STARLINK-36606
OBJECT_ID      = 2026-033AA
CENTER_NAME    = EARTH
REF_FRAME      = TEME
TIME_SYSTEM    = UTC
MEAN_ELEMENT_THEORY = SGP/SGP4

EPOCH          = 2026-02-28T18:36:25.500960
MEAN_MOTION    = 15.82083017
ECCENTRICITY   = .000245
INCLINATION    = 42.9985
RA_OF_ASC_NODE = 325.9096
ARG_OF_PERICENTER = 262.2545
MEAN_ANOMALY   = 97.8049

EPHEMERIS_TYPE = 0
CLASSIFICATION_TYPE = U
NORAD_CAT_ID   = 67845
ELEMENT_SET_NO = 999
REV_AT_EPOCH   = 321
BSTAR          = .11448E-2
MEAN_MOTION_DOT = .248339E-2
MEAN_MOTION_DDOT = 0

CCSDS_OMM_VERS = 2.0
CREATION_DATE  = 
ORIGINATOR     = 

OBJECT_NAME    = STARLINK-36658
OBJECT_ID      = 2026-033AB
CENTER_NAME    = EARTH
REF_FRAME      = TEME
TIME_SYSTEM    = UTC
MEAN_ELEMENT_THEORY = SGP/SGP4

EPOCH          = 2026-02-28T18:35:20.802912
MEAN_MOTION    = 15.82097724
ECCENTRICITY   = .0002328
INCLINATION    = 42.9982
RA_OF_ASC_NODE = 325.9038
ARG_OF_PERICENTER = 254.2271
MEAN_ANOMALY   = 105.8344

EPHEMERIS_TYPE = 0
CLASSIFICATION_TYPE = U
NORAD_CAT_ID   = 67846
ELEMENT_SET_NO = 999
REV_AT_EPOCH   = 321
BSTAR          = .1195E-2
MEAN_MOTION_DOT = .259778E-2
MEAN_MOTION_DDOT = 0

CCSDS_OMM_VERS = 2.0
CREATION_DATE  = 
ORIGINATOR     = 

OBJECT_NAME    = STARLINK-36618
OBJECT_ID      = 2026-033AC
CENTER_NAME    = EARTH
REF_FRAME      = TEME
TIME_SYSTEM    = UTC
MEAN_ELEMENT_THEORY = SGP/SGP4

EPOCH          = 2026-02-28T18:11:19.152384
MEAN_MOTION    = 16.01694389
ECCENTRICITY   = .0002769
INCLINATION    = 42.9885
RA_OF_ASC_NODE = 324.8474
ARG_OF_PERICENTER = 263.3844
MEAN_ANOMALY   = 96.6720

EPHEMERIS_TYPE = 0
CLASSIFICATION_TYPE = U
NORAD_CAT_ID   = 67847
ELEMENT_SET_NO = 999
REV_AT_EPOCH   = 322
BSTAR          = .10061E-3
MEAN_MOTION_DOT = .56624E-3
MEAN_MOTION_DDOT = .99178E-5

CCSDS_OMM_VERS = 2.0
CREATION_DATE  = 
ORIGINATOR     = 

OBJECT_NAME    = STARLINK-36660
OBJECT_ID      = 2026-033AD
CENTER_NAME    = EARTH
REF_FRAME      = TEME
TIME_SYSTEM    = UTC
MEAN_ELEMENT_THEORY = SGP/SGP4

EPOCH          = 2026-02-28T18:34:15.945024
MEAN_MOTION    = 15.82110795
ECCENTRICITY   = .0001388
INCLINATION    = 42.9982
RA_OF_ASC_NODE = 325.8978
ARG_OF_PERICENTER = 264.1708
MEAN_ANOMALY   = 95.9005

EPHEMERIS_TYPE = 0
CLASSIFICATION_TYPE = U
NORAD_CAT_ID   = 67848
ELEMENT_SET_NO = 999
REV_AT_EPOCH   = 321
BSTAR          = .10178E-2
MEAN_MOTION_DOT = .220293E-2
MEAN_MOTION_DDOT = 0

CCSDS_OMM_VERS = 2.0
CREATION_DATE  = 
ORIGINATOR     = 

OBJECT_NAME    = STARLINK-36602
OBJECT_ID      = 2026-033AE
CENTER_NAME    = EARTH
REF_FRAME      = TEME
TIME_SYSTEM    = UTC
MEAN_ELEMENT_THEORY = SGP/SGP4

EPOCH          = 2026-02-28T18:33:11.600352
MEAN_MOTION    = 15.82042904
ECCENTRICITY   = .0002408
INCLINATION    = 42.9986
RA_OF_ASC_NODE = 325.8917
ARG_OF_PERICENTER = 272.4009
MEAN_ANOMALY   = 87.6587

EPHEMERIS_TYPE = 0
CLASSIFICATION_TYPE = U
NORAD_CAT_ID   = 67849
ELEMENT_SET_NO = 999
REV_AT_EPOCH   = 321
BSTAR          = .80828E-3
MEAN_MOTION_DOT = .17334E-2
MEAN_MOTION_DDOT = 0

CCSDS_OMM_VERS = 2.0
CREATION_DATE  = 
ORIGINATOR     = 

OBJECT_NAME    = STARLINK-36840
OBJECT_ID      = 2026-034A
CENTER_NAME    = EARTH
REF_FRAME      = TEME
TIME_SYSTEM    = UTC
MEAN_ELEMENT_THEORY = SGP/SGP4

EPOCH          = 2026-02-28T20:00:01.999008
MEAN_MOTION    = 15.82105169
ECCENTRICITY   = .0000768
INCLINATION    = 53.1525
RA_OF_ASC_NODE = 255.7461
ARG_OF_PERICENTER = 71.2006
MEAN_ANOMALY   = 17.3074

EPHEMERIS_TYPE = 0
CLASSIFICATION_TYPE = U
NORAD_CAT_ID   = 67850
ELEMENT_SET_NO = 999
REV_AT_EPOCH   = 248
BSTAR          = -.75983E-2
MEAN_MOTION_DOT = -.1412692E-1
MEAN_MOTION_DDOT = 0

CCSDS_OMM_VERS = 2.0
CREATION_DATE  = 
ORIGINATOR     = 

OBJECT_NAME    = STARLINK-36348
OBJECT_ID      = 2026-034B
CENTER_NAME    = EARTH
REF_FRAME      = TEME
TIME_SYSTEM    = UTC
MEAN_ELEMENT_THEORY = SGP/SGP4

EPOCH          = 2026-02-28T20:00:01.999008
MEAN_MOTION    = 15.82394483
ECCENTRICITY   = .0001063
INCLINATION    = 53.1523
RA_OF_ASC_NODE = 255.7378
ARG_OF_PERICENTER = 58.0027
MEAN_ANOMALY   = 34.4282

EPHEMERIS_TYPE = 0
CLASSIFICATION_TYPE = U
NORAD_CAT_ID   = 67851
ELEMENT_SET_NO = 999
REV_AT_EPOCH   = 243
BSTAR          = -.83898E-2
MEAN_MOTION_DOT = -.1560754E-1
MEAN_MOTION_DDOT = 0

CCSDS_OMM_VERS = 2.0
CREATION_DATE  = 
ORIGINATOR     = 

OBJECT_NAME    = STARLINK-36276
OBJECT_ID      = 2026-034C
CENTER_NAME    = EARTH
REF_FRAME      = TEME
TIME_SYSTEM    = UTC
MEAN_ELEMENT_THEORY = SGP/SGP4

EPOCH          = 2026-02-28T20:00:01.999008
MEAN_MOTION    = 15.82629276
ECCENTRICITY   = .0000715
INCLINATION    = 53.1522
RA_OF_ASC_NODE = 255.7297
ARG_OF_PERICENTER = 72.5291
MEAN_ANOMALY   = 23.7758

EPHEMERIS_TYPE = 0
CLASSIFICATION_TYPE = U
NORAD_CAT_ID   = 67852
ELEMENT_SET_NO = 999
REV_AT_EPOCH   = 243
BSTAR          = -.83427E-2
MEAN_MOTION_DOT = -.1568048E-1
MEAN_MOTION_DDOT = 0

